COSMOS 1892             
1 18421U 87088A   20310.01548614  .00000655  00000-0  31213-4 0  9992
2 18421  82.4976 134.4303 0013711 301.1666  58.8222 15.17281704806083
SL-14 R/B               
1 18749U 88001B   20310.15641959  .00000096  00000-0  88451-5 0  9998
2 18749  82.5167 225.7739 0018370 190.0268 285.6354 14.83231859773824
COSMOS 1933             
1 18958U 88020A   20309.59861347  .00000763  00000-0  53397-4 0  9993
2 18958  82.5300 350.2611 0012503  41.0023 319.2140 15.03786197777312
SL-3 R/B                
1 19046U 88032B   20309.95934722 -.00000433  00000-0 -27500-4 0  9996
2 19046  97.3971 324.7598 0039615  87.3042 273.2717 15.02775987758060
SL-16 R/B               
1 19120U 88039B   20309.94063409 -.00000122  00000-0 -35269-4 0  9996
2 19120  71.0157 231.6654 0019566  92.0939 268.2427 14.19207401681580
COSMOS 1953             
1 19210U 88050A   20309.90611569  .00000813  00000-0  53664-4 0  9995
2 19210  82.5141 273.4752 0013776   7.2448 352.8975 15.06053798742809
SL-8 R/B                
1 19257U 88053B   20309.88970892 -.00000046  00000-0 -65698-5 0  9994
2 19257  74.0463 102.7591 0019776  44.8510  64.2283 14.37489590696182
COSMOS 1975             
1 19573U 88093A   20309.91686016  .00000940  00000-0  64130-4 0  9995
2 19573  82.5219 228.1097 0015666  47.8324 312.4230 15.04961676724637
SL-14 R/B               
1 19574U 88093B   20309.88308594  .00000087  00000-0  76029-5 0  9997
2 19574  82.5332  68.7296 0021615   3.0680 119.0717 14.83342540711684
SL-16 R/B               
1 19650U 88102B   20309.94266259  .00000002  00000-0  25290-4 0  9991
2 19650  70.9969 294.4873 0011986 102.6217 257.6247 14.15792805650763
INTERCOSMOS 24          
1 20261U 89080A   20310.08309825  .00000126  00000-0  27939-4 0  9990
2 20261  82.6008 289.2573 1203622 123.3025 248.9234 12.56140803421240
SL-14 R/B               
1 20262U 89080C   20309.60520896  .00000058  00000-0  16119-4 0  9992
2 20262  82.5947 344.1675 1236346 317.6335  33.5412 12.48948317416480
DELTA 2 R/B(1)          
1 20303U 89085B   20309.91922517  .00002942  00000-0  94656-4 0  9999
2 20303  35.6352 207.7682 0094329 345.0208  14.7733 15.27804413690099
DELTA 1 R/B             
1 20323U 89089B   20309.94702317  .00000061  00000-0  24642-4 0  9990
2 20323  97.1109  73.4597 0072570 148.0440 212.5189 14.48366074633739
ARIANE 40 R/B           
1 20443U 90005H   20309.77908406  .00000015  00000-0  19647-4 0  9999
2 20443  98.5601  11.2604 0009337 286.3682  73.6478 14.38103343612289
DELTA 2 R/B(1)          
1 20453U 90008B   20309.94691823  .00001344  00000-0  77884-4 0  9997
2 20453  35.6229 147.7375 0279303  37.7220 324.2729 14.85770269632102
COSMOS 2058             
1 20465U 90010A   20309.92048797  .00000282  00000-0  21435-4 0  9998
2 20465  82.4869 138.1886 0016870  87.8096 272.5058 14.98066855649359
SL-14 R/B               
1 20466U 90010B   20309.90428333  .00000073  00000-0  63760-5 0  9991
2 20466  82.5001 295.3263 0019228 233.6181 126.3259 14.81397299639528
SL-14 R/B               
1 20511U 90018B   20309.88052069  .00000098  00000-0  98270-5 0  9997
2 20511  82.5244 242.3492 0018056  22.1105  35.6589 14.80052978633881
HST                     
1 20580U 90037B   20309.86906166  .00000544  00000-0  22081-4 0  9990
2 20580  28.4690 110.8962 0002695 160.1119 317.6454 15.09465383477196
SL-16 R/B               
1 20625U 90046B   20309.79311889 -.00000129  00000-0 -42159-4 0  9993
2 20625  71.0001  73.6287 0013467  18.8902 341.2717 14.14663855572718
COSMOS 2084             
1 20663U 90055A   20309.85463700  .00000049  00000-0  22756-4 0  9992
2 20663  62.7959  59.3966 0036884 320.2040  39.6349 14.92131985644309
SL-6 R/B(2)             
1 20666U 90055D   20309.81663171  .00000042  00000-0  22121-4 0  9994
2 20666  62.7863 335.6120 0066026   6.7718 353.4252 14.92379330646240
SL-8 R/B                
1 20775U 90078B   20309.92701436  .00002405  00000-0  11364-3 0  9990
2 20775  82.9238 110.7607 0572641 119.2953 246.6720 14.34902782525887
SL-8 R/B                
1 21088U 91006B   20309.75497038  .00000014  00000-0 -12493-5 0  9992
2 21088  82.9442 180.9174 0023733  97.6261 327.3482 13.77148426495795
OKEAN-3                 
1 21397U 91039A   20309.79415727  .00000301  00000-0  26357-4 0  9991
2 21397  82.5247  43.2908 0019122  62.6809 297.6355 14.92980575594267
COSMOS 2151             
1 21422U 91042A   20309.94724095  .00000199  00000-0  16927-4 0  9999
2 21422  82.4987 149.1957 0015415 120.6518 239.6224 14.92169427571833
SL-14 R/B               
1 21423U 91042B   20309.90619637  .00000081  00000-0  76647-5 0  9997
2 21423  82.4949 245.6206 0018181 154.5897 205.6214 14.79803115564434
ERS-1                   
1 21574U 91050A   20309.85534725  .00000034  00000-0  26013-4 0  9990
2 21574  98.6156 263.3715 0032068 228.5716 131.2714 14.37765638535296
ARIANE 40 R/B           
1 21610U 91050F   20309.82562619  .00000032  00000-0  23747-4 0  9990
2 21610  98.4516  17.5652 0003195 178.5517 291.6699 14.40919487537917
INTERCOSMOS 25          
1 21819U 91086A   20309.79822680  .00000527  00000-0  10681-3 0  9994
2 21819  82.5938  42.2713 1514942 333.0299  19.9216 12.05156988261217
SL-8 R/B                
1 21876U 92008B   20310.17879677  .00000081  00000-0  67745-4 0  9993
2 21876  82.9243 277.8113 0034704 178.6766 192.7812 13.75666467441451
SL-8 R/B                
1 21938U 92020B   20309.95939470  .00000096  00000-0  84665-4 0  9994
2 21938  82.9296 162.2674 0029008 343.9753 127.6880 13.75281738432985
COSMOS 2219             
1 22219U 92076A   20309.88832231 -.00000179  00000-0 -69781-4 0  9993
2 22219  71.0593 134.3462 0020766 297.4189  62.4820 14.13655939442667
SL-16 R/B               
1 22220U 92076B   20309.84408571 -.00000064  00000-0 -81188-5 0  9996
2 22220  71.0008 336.0531 0013424 199.0174 333.3936 14.16463516445552
COSMOS 2221             
1 22236U 92080A   20309.77190401  .00000208  00000-0  19998-4 0  9997
2 22236  82.5065 331.0651 0015843 211.3351 148.6924 14.87962620490146
SL-16 R/B               
1 22285U 92093B   20309.90356254 -.00000056  00000-0 -44049-5 0  9999
2 22285  71.0201 137.8662 0003368   8.3602 351.7576 14.15053068437207
COSMOS 2228             
1 22286U 92094A   20309.90528921  .00000247  00000-0  24010-4 0  9998
2 22286  82.5174 287.3343 0020528 338.9056  21.1312 14.88183063485335
SL-16 R/B               
1 22566U 93016B   20309.58457766  .00000274  00000-0  16611-3 0  9993
2 22566  71.0090 351.6031 0008677  43.2776 316.9027 14.14968178426151
COSMOS 2242             
1 22626U 93024A   20309.96391918  .00000208  00000-0  19930-4 0  9992
2 22626  82.5192 315.4693 0018263 339.1754  20.8717 14.88035959489750
SL-16 R/B               
1 22803U 93059B   20309.89897084 -.00000083  00000-0 -17236-4 0  9994
2 22803  70.9878 163.2909 0019260 298.5507  61.3677 14.16829810403197
ARIANE 40 R/B           
1 22830U 93061H   20309.72975638 -.00000014  00000-0  11972-4 0  9995
2 22830  98.7480   0.1093 0009881 270.6279  89.3771 14.31458783414890
COSMOS 2278             
1 23087U 94023A   20309.69111691 -.00000147  00000-0 -52535-4 0  9994
2 23087  71.0539 294.5308 0006664 140.4362 219.7248 14.13819605369010
SL-16 R/B               
1 23088U 94023B   20309.89870477  .00000311  00000-0  18647-3 0  9997
2 23088  71.0008 206.3346 0003203 343.6142  16.4876 14.14685615370175
SL-16 R/B               
1 23343U 94074B   20310.16761385  .00000037  00000-0  12608-4 0  9993
2 23343  97.9814   1.7912 0008058  63.1805   0.7696 14.76843576399391
SL-16 R/B               
1 23405U 94077B   20309.92946679 -.00000022  00000-0  13433-4 0  9990
2 23405  70.9794 135.0976 0004816 256.6720 103.3865 14.15223510340232
ERS-2                   
1 23560U 95021A   20309.93637466  .00001046  00000-0  47759-4 0  9998
2 23560  98.5542 122.8064 0004425  62.7294 297.4390 15.23387651363501
ARIANE 40+ R/B          
1 23561U 95021B   20310.14907247  .00000039  00000-0  28046-4 0  9990
2 23561  98.7082 351.3890 0006823 188.4216 238.4126 14.37990077339010
SL-16 R/B               
1 23705U 95058B   20309.75703716  .00000043  00000-0  46687-4 0  9996
2 23705  71.0200 314.5762 0013938 221.4983 138.5083 14.15142922291821
SL-16 R/B               
1 24298U 96051B   20309.80408777 -.00000101  00000-0 -28152-4 0  9997
2 24298  70.8416 334.6610 0015322 155.0301 205.1564 14.12491143246177
ORBVIEW 2 (SEASTAR)     
1 24883U 97037A   20309.90027969  .00000046  00000-0  32658-4 0  9995
2 24883  98.6242  62.5759 0003181  64.9072 295.2442 14.33577880228830
SL-16 R/B               
1 25400U 98043G   20309.81857379  .00000008  00000-0  21806-4 0  9996
2 25400  98.6177 243.2109 0008890 288.6368  71.3847 14.25463602161010
SL-16 R/B               
1 25407U 98045B   20309.79504630  .00000249  00000-0  15099-3 0  9994
2 25407  71.0108 322.6610 0005666 131.4146 228.7464 14.15829851150946
ISS (ZARYA)             
1 25544U 98067A   20310.24235862  .00002240  00000-0  48175-4 0  9995
2 25544  51.6464  10.5089 0001916  86.8260  19.7416 15.49387201253882
SL-8 R/B                
1 25723U 99022C   20310.08239205  .00034640  00000-0  18170-3 0  9993
2 25723  48.4110 308.8025 0004430 334.9879  25.0861 15.80316672200170
CZ-4B R/B               
1 25732U 99025C   20309.87275505 -.00000021  00000-0  12008-4 0  9996
2 25732  98.9318 339.4957 0037577 168.8879   3.9571 14.17682817111716
OKEAN-O                 
1 25860U 99039A   20310.04644280  .00000037  00000-0  12982-4 0  9991
2 25860  98.2061 331.4392 0001727 105.9661 254.1738 14.76687193146350
SL-16 R/B               
1 25861U 99039B   20310.02380130  .00000029  00000-0  11549-4 0  9990
2 25861  98.2105 314.9748 0016848  68.4117 350.7142 14.78598406148534
DELTA 2 R/B             
1 25876U 99041E   20309.90974611 -.00000126  00000-0  20460-4 0  9998
2 25876  51.7626 115.8574 0531432  33.8179 329.5479 14.04477143 88366
